{
  "norad_id": 59756,
  "name": "STARLINK-11131 [DTC]",
  "history": [
    {
      "epoch": "2026-03-28T08:39:23.260896Z",
      "apogee_km": 360.5526774556429,
      "perigee_km": 358.94528737567725,
      "latitude_deg": -4.312866659949707e-05,
      "longitude_deg": 158.76000351698002,
      "height_km": 360.49616654099543,
      "semi_major_axis_km": 6737.88598241566,
      "eccentricity": 0.00011928,
      "inclination_deg": 53.1588,
      "raan_deg": 114.3892,
      "arg_perigee_deg": 78.0611,
      "mean_anomaly_deg": 282.054,
      "mean_motion_rev_day": 15.69702231
    }
  ]
}