{"fetched_at":"2026-03-29T02:12:04Z","count":15717,"tles":[{"name":"STARLINK-11131 [DTC]","line1":"1 59756U 24091D   26087.36068589  .00003315  00000+0  32224-4 0  9994","line2":"2 59756  53.1588 114.3892 0001192  78.0611 282.0540 15.69702231108442","category":"Starlink"}]}